{"type": "FeatureCollection", "features": [ {"type": "Feature", "properties": {"norad_id": 37284, "name": "COSMOS 2251 DEB", "group": "cosmos-2251-debris", "lat": -44.814134716664185, "lon": 132.81030439427516, "alt_km": 743.166349413018, "timestamp": "2025-12-16T21:38:57.572893+00:00", "meta": {"OBJECT_NAME": "COSMOS 2251 DEB", "OBJECT_ID": "1993-036BHY", "EPOCH": "2025-12-10T18:04:20.469216", "MEAN_MOTION": 14.12686618, "ECCENTRICITY": 0.01605026, "INCLINATION": 74.0123, "RA_OF_ASC_NODE": 160.2425, "ARG_OF_PERICENTER": 312.4867, "MEAN_ANOMALY": 59.8736, "EPHEMERIS_TYPE": 0, "CLASSIFICATION_TYPE": "U", "NORAD_CAT_ID": 37284, "ELEMENT_SET_NO": 999, "REV_AT_EPOCH": 59147, "BSTAR": 0.001592138, "MEAN_MOTION_DOT": 3.31e-05, "MEAN_MOTION_DDOT": 0}, "tle": {"line1": "1 37284U 93036BHY 25344.75301469  .00003310  00000+0  15921-2 0  9994", "line2": "2 37284  74.0123 160.2425 0160502 312.4867  59.8736 14.12686618591475"}}, "geometry": {"type": "Point", "coordinates": [132.81030439427516, -44.814134716664185]}}, {"type": "Feature", "properties": {"norad_id": 37292, "name": "COSMOS 2251 DEB", "group": "cosmos-2251-debris", "lat": -63.31996722234806, "lon": 8.088260098280442, "alt_km": 945.773955751577, "timestamp": "2025-12-16T21:38:57.572903+00:00", "meta": {"OBJECT_NAME": "COSMOS 2251 DEB", "OBJECT_ID": "1993-036BJG", "EPOCH": "2025-12-02T14:04:30.366912", "MEAN_MOTION": 14.03226454, "ECCENTRICITY": 0.02102512, "INCLINATION": 74.129, "RA_OF_ASC_NODE": 67.3453, "ARG_OF_PERICENTER": 73.1105, "MEAN_ANOMALY": 289.2966, "EPHEMERIS_TYPE": 0, "CLASSIFICATION_TYPE": "U", "NORAD_CAT_ID": 37292, "ELEMENT_SET_NO": 999, "REV_AT_EPOCH": 59706, "BSTAR": 0.0022453288, "MEAN_MOTION_DOT": 4.236e-05, "MEAN_MOTION_DDOT": 0}, "tle": {"line1": "1 37292U 93036BJG 25336.58646258  .00004236  00000+0  22453-2 0  9999", "line2": "2 37292  74.1290  67.3453 0210251  73.1105 289.2966 14.03226454597064"}}, "geometry": {"type": "Point", "coordinates": [8.088260098280442, -63.31996722234806]}}, {"type": "Feature", "properties": {"norad_id": 37295, "name": "COSMOS 2251 DEB", "group": "cosmos-2251-debris", "lat": 52.260346079922805, "lon": -64.64932708760583, "alt_km": 646.0308085665993, "timestamp": "2025-12-16T21:38:57.572914+00:00", "meta": {"OBJECT_NAME": "COSMOS 2251 DEB", "OBJECT_ID": "1993-036BJK", "EPOCH": "2025-12-15T12:37:34.902624", "MEAN_MOTION": 14.65257208, "ECCENTRICITY": 0.00438072, "INCLINATION": 74.0066, "RA_OF_ASC_NODE": 276.2519, "ARG_OF_PERICENTER": 94.6332, "MEAN_ANOMALY": 265.9841, "EPHEMERIS_TYPE": 0, "CLASSIFICATION_TYPE": "U", "NORAD_CAT_ID": 37295, "ELEMENT_SET_NO": 999, "REV_AT_EPOCH": 82345, "BSTAR": 0.00041801596, "MEAN_MOTION_DOT": 2.254e-05, "MEAN_MOTION_DDOT": 0}, "tle": {"line1": "1 37295U 93036BJK 25349.52609841  .00002254  00000+0  41802-3 0  9995", "line2": "2 37295  74.0066 276.2519 0043807  94.6332 265.9841 14.65257208823459"}}, "geometry": {"type": "Point", "coordinates": [-64.64932708760583, 52.260346079922805]}}, {"type": "Feature", "properties": {"norad_id": 37305, "name": "COSMOS 2251 DEB", "group": "cosmos-2251-debris", "lat": 54.969991445243345, "lon": 78.41397619217824, "alt_km": 783.8922036265003, "timestamp": "2025-12-16T21:38:57.572924+00:00", "meta": {"OBJECT_NAME": "COSMOS 2251 DEB", "OBJECT_ID": "1993-036BJV", "EPOCH": "2025-12-13T12:50:04.816608", "MEAN_MOTION": 14.36140847, "ECCENTRICITY": 0.00500253, "INCLINATION": 73.8697, "RA_OF_ASC_NODE": 289.0409, "ARG_OF_PERICENTER": 249.3262, "MEAN_ANOMALY": 110.2523, "EPHEMERIS_TYPE": 0, "CLASSIFICATION_TYPE": "U", "NORAD_CAT_ID": 37305, "ELEMENT_SET_NO": 999, "REV_AT_EPOCH": 66878, "BSTAR": 0.00092453159, "MEAN_MOTION_DOT": 2.706e-05, "MEAN_MOTION_DDOT": 0}, "tle": {"line1": "1 37305U 93036BJV 25347.53477797  .00002706  00000+0  92453-3 0  9999", "line2": "2 37305  73.8697 289.0409 0050025 249.3262 110.2523 14.36140847668789"}}, "geometry": {"type": "Point", "coordinates": [78.41397619217824, 54.969991445243345]}}, {"type": "Feature", "properties": {"norad_id": 37312, "name": "COSMOS 2251 DEB", "group": "cosmos-2251-debris", "lat": -43.90458542632201, "lon": -179.58653150055466, "alt_km": 731.9588522704216, "timestamp": "2025-12-16T21:38:57.572934+00:00", "meta": {"OBJECT_NAME": "COSMOS 2251 DEB", "OBJECT_ID": "1993-036BKC", "EPOCH": "2025-12-15T07:40:32.314080", "MEAN_MOTION": 14.46134941, "ECCENTRICITY": 0.00183905, "INCLINATION": 74.0308, "RA_OF_ASC_NODE": 199.364, "ARG_OF_PERICENTER": 302.4306, "MEAN_ANOMALY": 57.5073, "EPHEMERIS_TYPE": 0, "CLASSIFICATION_TYPE": "U", "NORAD_CAT_ID": 37312, "ELEMENT_SET_NO": 999, "REV_AT_EPOCH": 86201, "BSTAR": 0.00037323494, "MEAN_MOTION_DOT": 1.309e-05, "MEAN_MOTION_DDOT": 0}, "tle": {"line1": "1 37312U 93036BKC 25349.31981845  .00001309  00000+0  37323-3 0  9992", "line2": "2 37312  74.0308 199.3640 0018390 302.4306  57.5073 14.46134941862012"}}, "geometry": {"type": "Point", "coordinates": [-179.58653150055466, -43.90458542632201]}}, {"type": "Feature", "properties": {"norad_id": 37316, "name": "COSMOS 2251 DEB", "group": "cosmos-2251-debris", "lat": 20.843646146960378, "lon": -173.59024330849456, "alt_km": 579.0607746409278, "timestamp": "2025-12-16T21:38:57.572945+00:00", "meta": {"OBJECT_NAME": "COSMOS 2251 DEB", "OBJECT_ID": "1993-036BKG", "EPOCH": "2025-12-16T08:05:44.873952", "MEAN_MOTION": 14.94645917, "ECCENTRICITY": 0.00293948, "INCLINATION": 74.02, "RA_OF_ASC_NODE": 13.8123, "ARG_OF_PERICENTER": 80.496, "MEAN_ANOMALY": 279.9544, "EPHEMERIS_TYPE": 0, "CLASSIFICATION_TYPE": "U", "NORAD_CAT_ID": 37316, "ELEMENT_SET_NO": 999, "REV_AT_EPOCH": 86197, "BSTAR": 0.0014308945, "MEAN_MOTION_DOT": 0.00015638, "MEAN_MOTION_DDOT": 0}, "tle": {"line1": "1 37316U 93036BKG 25350.33732493  .00015638  00000+0  14309-2 0  9991", "line2": "2 37316  74.0200  13.8123 0029394  80.4960 279.9544 14.94645917861978"}}, "geometry": {"type": "Point", "coordinates": [-173.59024330849456, 20.843646146960378]}}, {"type": "Feature", "properties": {"norad_id": 37320, "name": "COSMOS 2251 DEB", "group": "cosmos-2251-debris", "lat": 53.439182670077784, "lon": -127.32362873475725, "alt_km": 644.3220430382962, "timestamp": "2025-12-16T21:38:57.572956+00:00", "meta": {"OBJECT_NAME": "COSMOS 2251 DEB", "OBJECT_ID": "1993-036BKL", "EPOCH": "2025-12-14T07:41:51.703584", "MEAN_MOTION": 14.78808328, "ECCENTRICITY": 0.00469324, "INCLINATION": 74.0457, "RA_OF_ASC_NODE": 215.056, "ARG_OF_PERICENTER": 301.712, "MEAN_ANOMALY": 57.9484, "EPHEMERIS_TYPE": 0, "CLASSIFICATION_TYPE": "U", "NORAD_CAT_ID": 37320, "ELEMENT_SET_NO": 999, "REV_AT_EPOCH": 66170, "BSTAR": 0.00089962437, "MEAN_MOTION_DOT": 6.711e-05, "MEAN_MOTION_DDOT": 0}, "tle": {"line1": "1 37320U 93036BKL 25348.32073731  .00006711  00000+0  89962-3 0  9995", "line2": "2 37320  74.0457 215.0560 0046932 301.7120  57.9484 14.78808328661707"}}, "geometry": {"type": "Point", "coordinates": [-127.32362873475725, 53.439182670077784]}}, {"type": "Feature", "properties": {"norad_id": 37326, "name": "COSMOS 2251 DEB", "group": "cosmos-2251-debris", "lat": 3.6131635366195356, "lon": -32.23921697514387, "alt_km": 690.4135139839273, "timestamp": "2025-12-16T21:38:57.572966+00:00", "meta": {"OBJECT_NAME": "COSMOS 2251 DEB", "OBJECT_ID": "1993-036BKS", "EPOCH": "2025-12-16T06:50:51.746496", "MEAN_MOTION": 14.61593752, "ECCENTRICITY": 0.00547435, "INCLINATION": 74.0256, "RA_OF_ASC_NODE": 327.9045, "ARG_OF_PERICENTER": 95.865, "MEAN_ANOMALY": 264.876, "EPHEMERIS_TYPE": 0, "CLASSIFICATION_TYPE": "U", "NORAD_CAT_ID": 37326, "ELEMENT_SET_NO": 999, "REV_AT_EPOCH": 85535, "BSTAR": 0.00040846529, "MEAN_MOTION_DOT": 2.043e-05, "MEAN_MOTION_DDOT": 0}, "tle": {"line1": "1 37326U 93036BKS 25350.28532114  .00002043  00000+0  40847-3 0  9997", "line2": "2 37326  74.0256 327.9045 0054743  95.8650 264.8760 14.61593752855355"}}, "geometry": {"type": "Point", "coordinates": [-32.23921697514387, 3.6131635366195356]}}, {"type": "Feature", "properties": {"norad_id": 37330, "name": "COSMOS 2251 DEB", "group": "cosmos-2251-debris", "lat": -28.424989139544635, "lon": -81.7816571493887, "alt_km": 738.8303869305955, "timestamp": "2025-12-16T21:38:57.572976+00:00", "meta": {"OBJECT_NAME": "COSMOS 2251 DEB", "OBJECT_ID": "1993-036BKW", "EPOCH": "2025-12-15T04:39:38.606112", "MEAN_MOTION": 14.59547518, "ECCENTRICITY": 0.00569299, "INCLINATION": 74.0181, "RA_OF_ASC_NODE": 290.4011, "ARG_OF_PERICENTER": 138.2054, "MEAN_ANOMALY": 222.3481, "EPHEMERIS_TYPE": 0, "CLASSIFICATION_TYPE": "U", "NORAD_CAT_ID": 37330, "ELEMENT_SET_NO": 999, "REV_AT_EPOCH": 86404, "BSTAR": 0.00024598877, "MEAN_MOTION_DOT": 1.165e-05, "MEAN_MOTION_DDOT": 0}, "tle": {"line1": "1 37330U 93036BKW 25349.19419683  .00001165  00000+0  24599-3 0  9995", "line2": "2 37330  74.0181 290.4011 0056929 138.2054 222.3481 14.59547518864043"}}, "geometry": {"type": "Point", "coordinates": [-81.7816571493887, -28.424989139544635]}}, {"type": "Feature", "properties": {"norad_id": 37331, "name": "COSMOS 2251 DEB", "group": "cosmos-2251-debris", "lat": 73.63125445559632, "lon": 136.68675460306147, "alt_km": 729.0718111998285, "timestamp": "2025-12-16T21:38:57.572986+00:00", "meta": {"OBJECT_NAME": "COSMOS 2251 DEB", "OBJECT_ID": "1993-036BKX", "EPOCH": "2025-12-15T21:49:44.847840", "MEAN_MOTION": 14.35031583, "ECCENTRICITY": 0.00551695, "INCLINATION": 74.0745, "RA_OF_ASC_NODE": 62.0716, "ARG_OF_PERICENTER": 75.4056, "MEAN_ANOMALY": 285.3206, "EPHEMERIS_TYPE": 0, "CLASSIFICATION_TYPE": "U", "NORAD_CAT_ID": 37331, "ELEMENT_SET_NO": 999, "REV_AT_EPOCH": 84805, "BSTAR": 0.0003651681, "MEAN_MOTION_DOT": 1.033e-05, "MEAN_MOTION_DDOT": 0}, "tle": {"line1": "1 37331U 93036BKX 25349.90954685  .00001033  00000+0  36517-3 0  9998", "line2": "2 37331  74.0745  62.0716 0055169  75.4056 285.3206 14.35031583848055"}}, "geometry": {"type": "Point", "coordinates": [136.68675460306147, 73.63125445559632]}}]}